<?xml version="1.0" encoding="UTF-8"?>
<ndm xmlns:xsi="http://www.w3.org/2001/XMLSchema-instance" xsi:noNamespaceSchemaLocation="https://sanaregistry.org/r/ndmxml_unqualified/ndmxml-2.0.0-master-2.0.xsd">
<omm id="CCSDS_OMM_VERS" version="2.0">
<header><CREATION_DATE/><ORIGINATOR/></header><body><segment><metadata><OBJECT_NAME>KUIPER-00133</OBJECT_NAME><OBJECT_ID>2025-217C</OBJECT_ID><CENTER_NAME>EARTH</CENTER_NAME><REF_FRAME>TEME</REF_FRAME><TIME_SYSTEM>UTC</TIME_SYSTEM><MEAN_ELEMENT_THEORY>SGP4</MEAN_ELEMENT_THEORY></metadata><data><meanElements><EPOCH>2026-01-09T03:28:30.283680</EPOCH><MEAN_MOTION>14.79944414</MEAN_MOTION><ECCENTRICITY>.00117754</ECCENTRICITY><INCLINATION>51.9041</INCLINATION><RA_OF_ASC_NODE>316.4079</RA_OF_ASC_NODE><ARG_OF_PERICENTER>120.3945</ARG_OF_PERICENTER><MEAN_ANOMALY>239.8183</MEAN_ANOMALY></meanElements><tleParameters><EPHEMERIS_TYPE>0</EPHEMERIS_TYPE><CLASSIFICATION_TYPE>U</CLASSIFICATION_TYPE><NORAD_CAT_ID>65764</NORAD_CAT_ID><ELEMENT_SET_NO>999</ELEMENT_SET_NO><REV_AT_EPOCH>1592</REV_AT_EPOCH><BSTAR>-.22368599E-3</BSTAR><MEAN_MOTION_DOT>-.1932E-4</MEAN_MOTION_DOT><MEAN_MOTION_DDOT>0</MEAN_MOTION_DDOT></tleParameters></data></segment></body></omm>
<omm id="CCSDS_OMM_VERS" version="2.0">
<header><CREATION_DATE/><ORIGINATOR/></header><body><segment><metadata><OBJECT_NAME>KUIPER-00139</OBJECT_NAME><OBJECT_ID>2025-217D</OBJECT_ID><CENTER_NAME>EARTH</CENTER_NAME><REF_FRAME>TEME</REF_FRAME><TIME_SYSTEM>UTC</TIME_SYSTEM><MEAN_ELEMENT_THEORY>SGP4</MEAN_ELEMENT_THEORY></metadata><data><meanElements><EPOCH>2026-01-09T00:40:29.852256</EPOCH><MEAN_MOTION>15.02203270</MEAN_MOTION><ECCENTRICITY>.0008819</ECCENTRICITY><INCLINATION>51.8860</INCLINATION><RA_OF_ASC_NODE>307.0079</RA_OF_ASC_NODE><ARG_OF_PERICENTER>114.8713</ARG_OF_PERICENTER><MEAN_ANOMALY>245.3176</MEAN_ANOMALY></meanElements><tleParameters><EPHEMERIS_TYPE>0</EPHEMERIS_TYPE><CLASSIFICATION_TYPE>U</CLASSIFICATION_TYPE><NORAD_CAT_ID>65765</NORAD_CAT_ID><ELEMENT_SET_NO>999</ELEMENT_SET_NO><REV_AT_EPOCH>1604</REV_AT_EPOCH><BSTAR>.66821802E-3</BSTAR><MEAN_MOTION_DOT>.8647E-4</MEAN_MOTION_DOT><MEAN_MOTION_DDOT>0</MEAN_MOTION_DDOT></tleParameters></data></segment></body></omm>
<omm id="CCSDS_OMM_VERS" version="2.0">
<header><CREATION_DATE/><ORIGINATOR/></header><body><segment><metadata><OBJECT_NAME>KUIPER-00142</OBJECT_NAME><OBJECT_ID>2025-217E</OBJECT_ID><CENTER_NAME>EARTH</CENTER_NAME><REF_FRAME>TEME</REF_FRAME><TIME_SYSTEM>UTC</TIME_SYSTEM><MEAN_ELEMENT_THEORY>SGP4</MEAN_ELEMENT_THEORY></metadata><data><meanElements><EPOCH>2026-01-09T08:00:03.000384</EPOCH><MEAN_MOTION>14.84442431</MEAN_MOTION><ECCENTRICITY>.00016779</ECCENTRICITY><INCLINATION>51.8984</INCLINATION><RA_OF_ASC_NODE>298.2568</RA_OF_ASC_NODE><ARG_OF_PERICENTER>105.9634</ARG_OF_PERICENTER><MEAN_ANOMALY>161.5603</MEAN_ANOMALY></meanElements><tleParameters><EPHEMERIS_TYPE>0</EPHEMERIS_TYPE><CLASSIFICATION_TYPE>U</CLASSIFICATION_TYPE><NORAD_CAT_ID>65766</NORAD_CAT_ID><ELEMENT_SET_NO>999</ELEMENT_SET_NO><REV_AT_EPOCH>382</REV_AT_EPOCH><BSTAR>-.97662062E-3</BSTAR><MEAN_MOTION_DOT>-.8518E-4</MEAN_MOTION_DOT><MEAN_MOTION_DDOT>0</MEAN_MOTION_DDOT></tleParameters></data></segment></body></omm>
<omm id="CCSDS_OMM_VERS" version="2.0">
<header><CREATION_DATE/><ORIGINATOR/></header><body><segment><metadata><OBJECT_NAME>KUIPER-00145</OBJECT_NAME><OBJECT_ID>2025-217F</OBJECT_ID><CENTER_NAME>EARTH</CENTER_NAME><REF_FRAME>TEME</REF_FRAME><TIME_SYSTEM>UTC</TIME_SYSTEM><MEAN_ELEMENT_THEORY>SGP4</MEAN_ELEMENT_THEORY></metadata><data><meanElements><EPOCH>2026-01-09T01:34:26.646816</EPOCH><MEAN_MOTION>14.82822130</MEAN_MOTION><ECCENTRICITY>.00058235</ECCENTRICITY><INCLINATION>51.9000</INCLINATION><RA_OF_ASC_NODE>301.8261</RA_OF_ASC_NODE><ARG_OF_PERICENTER>102.8172</ARG_OF_PERICENTER><MEAN_ANOMALY>257.3443</MEAN_ANOMALY></meanElements><tleParameters><EPHEMERIS_TYPE>0</EPHEMERIS_TYPE><CLASSIFICATION_TYPE>U</CLASSIFICATION_TYPE><NORAD_CAT_ID>65767</NORAD_CAT_ID><ELEMENT_SET_NO>999</ELEMENT_SET_NO><REV_AT_EPOCH>1611</REV_AT_EPOCH><BSTAR>-.13003485E-1</BSTAR><MEAN_MOTION_DOT>-.104872E-2</MEAN_MOTION_DOT><MEAN_MOTION_DDOT>0</MEAN_MOTION_DDOT></tleParameters></data></segment></body></omm>
<omm id="CCSDS_OMM_VERS" version="2.0">
<header><CREATION_DATE/><ORIGINATOR/></header><body><segment><metadata><OBJECT_NAME>KUIPER-00147</OBJECT_NAME><OBJECT_ID>2025-217G</OBJECT_ID><CENTER_NAME>EARTH</CENTER_NAME><REF_FRAME>TEME</REF_FRAME><TIME_SYSTEM>UTC</TIME_SYSTEM><MEAN_ELEMENT_THEORY>SGP4</MEAN_ELEMENT_THEORY></metadata><data><meanElements><EPOCH>2026-01-09T08:00:03.000384</EPOCH><MEAN_MOTION>14.82133193</MEAN_MOTION><ECCENTRICITY>.00011672</ECCENTRICITY><INCLINATION>51.8983</INCLINATION><RA_OF_ASC_NODE>303.1288</RA_OF_ASC_NODE><ARG_OF_PERICENTER>83.8385</ARG_OF_PERICENTER><MEAN_ANOMALY>106.3496</MEAN_ANOMALY></meanElements><tleParameters><EPHEMERIS_TYPE>0</EPHEMERIS_TYPE><CLASSIFICATION_TYPE>U</CLASSIFICATION_TYPE><NORAD_CAT_ID>65768</NORAD_CAT_ID><ELEMENT_SET_NO>999</ELEMENT_SET_NO><REV_AT_EPOCH>518</REV_AT_EPOCH><BSTAR>.12789853E-3</BSTAR><MEAN_MOTION_DOT>.802E-5</MEAN_MOTION_DOT><MEAN_MOTION_DDOT>0</MEAN_MOTION_DDOT></tleParameters></data></segment></body></omm>
<omm id="CCSDS_OMM_VERS" version="2.0">
<header><CREATION_DATE/><ORIGINATOR/></header><body><segment><metadata><OBJECT_NAME>KUIPER-00148</OBJECT_NAME><OBJECT_ID>2025-217H</OBJECT_ID><CENTER_NAME>EARTH</CENTER_NAME><REF_FRAME>TEME</REF_FRAME><TIME_SYSTEM>UTC</TIME_SYSTEM><MEAN_ELEMENT_THEORY>SGP4</MEAN_ELEMENT_THEORY></metadata><data><meanElements><EPOCH>2026-01-09T06:58:01.888032</EPOCH><MEAN_MOTION>15.09170254</MEAN_MOTION><ECCENTRICITY>.00103585</ECCENTRICITY><INCLINATION>51.8784</INCLINATION><RA_OF_ASC_NODE>299.9069</RA_OF_ASC_NODE><ARG_OF_PERICENTER>140.7042</ARG_OF_PERICENTER><MEAN_ANOMALY>219.4686</MEAN_ANOMALY></meanElements><tleParameters><EPHEMERIS_TYPE>0</EPHEMERIS_TYPE><CLASSIFICATION_TYPE>U</CLASSIFICATION_TYPE><NORAD_CAT_ID>65769</NORAD_CAT_ID><ELEMENT_SET_NO>999</ELEMENT_SET_NO><REV_AT_EPOCH>1616</REV_AT_EPOCH><BSTAR>.93679933E-3</BSTAR><MEAN_MOTION_DOT>.14813E-3</MEAN_MOTION_DOT><MEAN_MOTION_DDOT>0</MEAN_MOTION_DDOT></tleParameters></data></segment></body></omm>
<omm id="CCSDS_OMM_VERS" version="2.0">
<header><CREATION_DATE/><ORIGINATOR/></header><body><segment><metadata><OBJECT_NAME>KUIPER-00150</OBJECT_NAME><OBJECT_ID>2025-217J</OBJECT_ID><CENTER_NAME>EARTH</CENTER_NAME><REF_FRAME>TEME</REF_FRAME><TIME_SYSTEM>UTC</TIME_SYSTEM><MEAN_ELEMENT_THEORY>SGP4</MEAN_ELEMENT_THEORY></metadata><data><meanElements><EPOCH>2026-01-09T03:32:23.723520</EPOCH><MEAN_MOTION>14.79888538</MEAN_MOTION><ECCENTRICITY>.0000791</ECCENTRICITY><INCLINATION>51.9030</INCLINATION><RA_OF_ASC_NODE>313.8940</RA_OF_ASC_NODE><ARG_OF_PERICENTER>70.3260</ARG_OF_PERICENTER><MEAN_ANOMALY>289.7787</MEAN_ANOMALY></meanElements><tleParameters><EPHEMERIS_TYPE>0</EPHEMERIS_TYPE><CLASSIFICATION_TYPE>U</CLASSIFICATION_TYPE><NORAD_CAT_ID>65770</NORAD_CAT_ID><ELEMENT_SET_NO>999</ELEMENT_SET_NO><REV_AT_EPOCH>1595</REV_AT_EPOCH><BSTAR>-.47517009E-3</BSTAR><MEAN_MOTION_DOT>-.3838E-4</MEAN_MOTION_DOT><MEAN_MOTION_DDOT>0</MEAN_MOTION_DDOT></tleParameters></data></segment></body></omm>
<omm id="CCSDS_OMM_VERS" version="2.0">
<header><CREATION_DATE/><ORIGINATOR/></header><body><segment><metadata><OBJECT_NAME>KUIPER-00151</OBJECT_NAME><OBJECT_ID>2025-217K</OBJECT_ID><CENTER_NAME>EARTH</CENTER_NAME><REF_FRAME>TEME</REF_FRAME><TIME_SYSTEM>UTC</TIME_SYSTEM><MEAN_ELEMENT_THEORY>SGP4</MEAN_ELEMENT_THEORY></metadata><data><meanElements><EPOCH>2026-01-09T02:06:54.607392</EPOCH><MEAN_MOTION>14.79961147</MEAN_MOTION><ECCENTRICITY>.00010611</ECCENTRICITY><INCLINATION>51.9021</INCLINATION><RA_OF_ASC_NODE>306.6555</RA_OF_ASC_NODE><ARG_OF_PERICENTER>78.9845</ARG_OF_PERICENTER><MEAN_ANOMALY>281.1237</MEAN_ANOMALY></meanElements><tleParameters><EPHEMERIS_TYPE>0</EPHEMERIS_TYPE><CLASSIFICATION_TYPE>U</CLASSIFICATION_TYPE><NORAD_CAT_ID>65771</NORAD_CAT_ID><ELEMENT_SET_NO>999</ELEMENT_SET_NO><REV_AT_EPOCH>1605</REV_AT_EPOCH><BSTAR>.43709672E-3</BSTAR><MEAN_MOTION_DOT>.3115E-4</MEAN_MOTION_DOT><MEAN_MOTION_DDOT>0</MEAN_MOTION_DDOT></tleParameters></data></segment></body></omm>

</ndm>
