KUIPER-00133            
1 65764U 25217C   26009.14479495 -.00001932  00000+0 -22369-3 0  9996
2 65764  51.9041 316.4079 0011775 120.3945 239.8183 14.79944414 15923
KUIPER-00139            
1 65765U 25217D   26009.02812329  .00008647  00000+0  66822-3 0  9991
2 65765  51.8860 307.0079 0008819 114.8713 245.3176 15.02203270 16047
KUIPER-00142            
1 65766U 25217E   26009.33336806 -.00008518  00000+0 -97662-3 0  9992
2 65766  51.8984 298.2568 0001677 105.9634 161.5603 14.84442431  3826
KUIPER-00145            
1 65767U 25217F   26009.06558619 -.00104872  00000+0 -13003-1 0  9996
2 65767  51.9000 301.8261 0005823 102.8172 257.3443 14.82822130 16116
KUIPER-00147            
1 65768U 25217G   26009.33336806  .00000802  00000+0  12790-3 0  9999
2 65768  51.8983 303.1288 0001167  83.8385 106.3496 14.82133193  5181
KUIPER-00148            
1 65769U 25217H   26009.29029963  .00014813  00000+0  93680-3 0  9992
2 65769  51.8784 299.9069 0010358 140.7042 219.4686 15.09170254 16161
KUIPER-00150            
1 65770U 25217J   26009.14749680 -.00003838  00000+0 -47517-3 0  9998
2 65770  51.9030 313.8940 0000791  70.3260 289.7787 14.79888538 15957
KUIPER-00151            
1 65771U 25217K   26009.08813203  .00003115  00000+0  43710-3 0  9992
2 65771  51.9021 306.6555 0001061  78.9845 281.1237 14.79961147 16050
